{
  "type": "FeatureCollection",
  "features": [
    {
      "type": "Feature",
      "properties": {
        "norad_id": 30596,
        "name": "FENGYUN 1C DEB",
        "group": "fengyun-1c-debris",
        "lat": 36.70252507576017,
        "lon": 179.52705086146216,
        "alt_km": 858.3743661508133,
        "timestamp": "2025-12-21T16:47:55.015666+00:00",
        "meta_object_name": "FENGYUN 1C DEB",
        "meta_object_id": "1999-025AMB",
        "meta_epoch": "2025-12-20T12:16:23.179296",
        "meta_mean_motion": 14.34379571,
        "meta_eccentricity": 0.02471983,
        "meta_inclination": 98.4132,
        "meta_ra_of_asc_node": 352.0347,
        "meta_arg_of_pericenter": 265.8226,
        "meta_mean_anomaly": 225.4808,
        "meta_ephemeris_type": 0,
        "meta_classification_type": "U",
        "meta_norad_cat_id": 30596,
        "meta_element_set_no": 999,
        "meta_rev_at_epoch": 98672,
        "meta_bstar": 0.00020806481,
        "meta_mean_motion_dot": 7.7e-06,
        "meta_mean_motion_ddot": 0,
        "tle_line1": "1 30596U 99025AMB 25354.51137939  .00000770  00000+0  20806-3 0  9997",
        "tle_line2": "2 30596  98.4132 352.0347 0247198 265.8226 225.4808 14.34379571986723"
      },
      "geometry": {
        "type": "Point",
        "coordinates": [
          179.52705086146216,
          36.70252507576017
        ]
      }
    },
    {
      "type": "Feature",
      "properties": {
        "norad_id": 30597,
        "name": "FENGYUN 1C DEB",
        "group": "fengyun-1c-debris",
        "lat": 72.30453341680156,
        "lon": 142.94108692563728,
        "alt_km": 552.9371302217814,
        "timestamp": "2025-12-21T16:47:55.015676+00:00",
        "meta_object_name": "FENGYUN 1C DEB",
        "meta_object_id": "1999-025AMC",
        "meta_epoch": "2025-12-20T19:25:14.730528",
        "meta_mean_motion": 14.93090835,
        "meta_eccentricity": 0.00463033,
        "meta_inclination": 98.9411,
        "meta_ra_of_asc_node": 292.3619,
        "meta_arg_of_pericenter": 137.173,
        "meta_mean_anomaly": 223.3108,
        "meta_ephemeris_type": 0,
        "meta_classification_type": "U",
        "meta_norad_cat_id": 30597,
        "meta_element_set_no": 999,
        "meta_rev_at_epoch": 98657,
        "meta_bstar": 0.0024964264,
        "meta_mean_motion_dot": 0.00026574,
        "meta_mean_motion_ddot": 0,
        "tle_line1": "1 30597U 99025AMC 25354.80919827  .00026574  00000+0  24964-2 0  9992",
        "tle_line2": "2 30597  98.9411 292.3619 0046303 137.1730 223.3108 14.93090835986574"
      },
      "geometry": {
        "type": "Point",
        "coordinates": [
          142.94108692563728,
          72.30453341680156
        ]
      }
    },
    {
      "type": "Feature",
      "properties": {
        "norad_id": 30599,
        "name": "FENGYUN 1C DEB",
        "group": "fengyun-1c-debris",
        "lat": -2.3025517004909113,
        "lon": 7.433598974307942,
        "alt_km": 657.8524338815168,
        "timestamp": "2025-12-21T16:47:55.015686+00:00",
        "meta_object_name": "FENGYUN 1C DEB",
        "meta_object_id": "1999-025AME",
        "meta_epoch": "2025-12-20T00:12:57.449664",
        "meta_mean_motion": 14.19723945,
        "meta_eccentricity": 0.03019093,
        "meta_inclination": 98.602,
        "meta_ra_of_asc_node": 5.4391,
        "meta_arg_of_pericenter": 323.6948,
        "meta_mean_anomaly": 34.4074,
        "meta_ephemeris_type": 0,
        "meta_classification_type": "U",
        "meta_norad_cat_id": 30599,
        "meta_element_set_no": 999,
        "meta_rev_at_epoch": 97270,
        "meta_bstar": 0.00050499549,
        "meta_mean_motion_dot": 1.635e-05,
        "meta_mean_motion_ddot": 0,
        "tle_line1": "1 30599U 99025AME 25354.00899826  .00001635  00000+0  50500-3 0  9999",
        "tle_line2": "2 30599  98.6020   5.4391 0301909 323.6948  34.4074 14.19723945972704"
      },
      "geometry": {
        "type": "Point",
        "coordinates": [
          7.433598974307942,
          -2.3025517004909113
        ]
      }
    },
    {
      "type": "Feature",
      "properties": {
        "norad_id": 30600,
        "name": "FENGYUN 1C DEB",
        "group": "fengyun-1c-debris",
        "lat": 65.26468633313556,
        "lon": -78.85165969865683,
        "alt_km": 1074.3560681044828,
        "timestamp": "2025-12-21T16:47:55.015698+00:00",
        "meta_object_name": "FENGYUN 1C DEB",
        "meta_object_id": "1999-025AMF",
        "meta_epoch": "2025-12-20T14:52:23.604960",
        "meta_mean_motion": 14.07612594,
        "meta_eccentricity": 0.0326796,
        "meta_inclination": 98.3891,
        "meta_ra_of_asc_node": 298.8245,
        "meta_arg_of_pericenter": 224.7834,
        "meta_mean_anomaly": 132.6533,
        "meta_ephemeris_type": 0,
        "meta_classification_type": "U",
        "meta_norad_cat_id": 30600,
        "meta_element_set_no": 999,
        "meta_rev_at_epoch": 94543,
        "meta_bstar": 0.0014756,
        "meta_mean_motion_dot": 4.02e-05,
        "meta_mean_motion_ddot": 0,
        "tle_line1": "1 30600U 99025AMF 25354.61971765  .00004020  00000+0  14756-2 0  9995",
        "tle_line2": "2 30600  98.3891 298.8245 0326796 224.7834 132.6533 14.07612594945437"
      },
      "geometry": {
        "type": "Point",
        "coordinates": [
          -78.85165969865683,
          65.26468633313556
        ]
      }
    },
    {
      "type": "Feature",
      "properties": {
        "norad_id": 30602,
        "name": "FENGYUN 1C DEB",
        "group": "fengyun-1c-debris",
        "lat": -79.33485482911391,
        "lon": -31.47314719107332,
        "alt_km": 607.0107343971176,
        "timestamp": "2025-12-21T16:47:55.015708+00:00",
        "meta_object_name": "FENGYUN 1C DEB",
        "meta_object_id": "1999-025AMH",
        "meta_epoch": "2025-12-21T11:01:20.158176",
        "meta_mean_motion": 14.92359214,
        "meta_eccentricity": 0.001322,
        "meta_inclination": 99.0331,
        "meta_ra_of_asc_node": 270.606,
        "meta_arg_of_pericenter": 95.5213,
        "meta_mean_anomaly": 327.8785,
        "meta_ephemeris_type": 0,
        "meta_classification_type": "U",
        "meta_norad_cat_id": 30602,
        "meta_element_set_no": 999,
        "meta_rev_at_epoch": 97935,
        "meta_bstar": 0.0060165,
        "meta_mean_motion_dot": 0.00062102,
        "meta_mean_motion_ddot": 0,
        "tle_line1": "1 30602U 99025AMH 25355.45926109  .00062102  00000+0  60165-2 0  9992",
        "tle_line2": "2 30602  99.0331 270.6060 0013220  95.5213 327.8785 14.92359214979355"
      },
      "geometry": {
        "type": "Point",
        "coordinates": [
          -31.47314719107332,
          -79.33485482911391
        ]
      }
    },
    {
      "type": "Feature",
      "properties": {
        "norad_id": 30603,
        "name": "FENGYUN 1C DEB",
        "group": "fengyun-1c-debris",
        "lat": -14.36564983602249,
        "lon": 19.85421897750455,
        "alt_km": 1083.2438042023796,
        "timestamp": "2025-12-21T16:47:55.015718+00:00",
        "meta_object_name": "FENGYUN 1C DEB",
        "meta_object_id": "1999-025AMJ",
        "meta_epoch": "2025-12-20T01:15:06.596352",
        "meta_mean_motion": 13.8414322,
        "meta_eccentricity": 0.01834493,
        "meta_inclination": 98.4086,
        "meta_ra_of_asc_node": 16.207,
        "meta_arg_of_pericenter": 185.4273,
        "meta_mean_anomaly": 233.3371,
        "meta_ephemeris_type": 0,
        "meta_classification_type": "U",
        "meta_norad_cat_id": 30603,
        "meta_element_set_no": 999,
        "meta_rev_at_epoch": 94977,
        "meta_bstar": 0.0010049027,
        "meta_mean_motion_dot": 1.238e-05,
        "meta_mean_motion_ddot": 0,
        "tle_line1": "1 30603U 99025AMJ 25354.05215968  .00001238  00000+0  10049-2 0  9991",
        "tle_line2": "2 30603  98.4086  16.2070 0183449 185.4273 233.3371 13.84143220949770"
      },
      "geometry": {
        "type": "Point",
        "coordinates": [
          19.85421897750455,
          -14.36564983602249
        ]
      }
    },
    {
      "type": "Feature",
      "properties": {
        "norad_id": 30604,
        "name": "FENGYUN 1C DEB",
        "group": "fengyun-1c-debris",
        "lat": -20.877678351630927,
        "lon": -153.08762006719567,
        "alt_km": 931.6777687142257,
        "timestamp": "2025-12-21T16:47:55.015730+00:00",
        "meta_object_name": "FENGYUN 1C DEB",
        "meta_object_id": "1999-025AMK",
        "meta_epoch": "2025-12-19T01:34:07.173120",
        "meta_mean_motion": 14.23620654,
        "meta_eccentricity": 0.02092952,
        "meta_inclination": 98.4019,
        "meta_ra_of_asc_node": 27.6253,
        "meta_arg_of_pericenter": 348.3373,
        "meta_mean_anomaly": 39.6079,
        "meta_ephemeris_type": 0,
        "meta_classification_type": "U",
        "meta_norad_cat_id": 30604,
        "meta_element_set_no": 999,
        "meta_rev_at_epoch": 97929,
        "meta_bstar": 0.00023851442,
        "meta_mean_motion_dot": 6.35e-06,
        "meta_mean_motion_ddot": 0,
        "tle_line1": "1 30604U 99025AMK 25353.06536080  .00000635  00000+0  23851-3 0  9999",
        "tle_line2": "2 30604  98.4019  27.6253 0209295 348.3373  39.6079 14.23620654979292"
      },
      "geometry": {
        "type": "Point",
        "coordinates": [
          -153.08762006719567,
          -20.877678351630927
        ]
      }
    }
  ]
}